NORAD_CAT_ID,OBJECT_NAME,OBJECT_TYPE,EPOCH,MEAN_MOTION,ECCENTRICITY,INCLINATION,RA_OF_ASC_NODE,ARG_OF_PERICENTER,MEAN_ANOMALY,BSTAR,MEAN_MOTION_DOT,MEAN_MOTION_DDOT,TLE_LINE0,TLE_LINE1,TLE_LINE2,SEMIMAJOR_AXIS,PERIOD,APOGEE,PERIGEE,DECAYED
52663.0,STARLINK-4037,PAYLOAD,2024-07-18 14:20:28,15.09022252,2.66e-05,53.2179,323.5524,120.5841,239.5177,0.0036836,0.00059124,0.0,0 STARLINK-4037,1 52663U 22053H   24200.59755320  .00059124  00000-0  36836-2 0  9997,2 52663  53.2179 323.5524 0000266 120.5841 239.5177 15.09022252120601,6917.323,95.426,539.372,539.004,0.0
52663.0,STARLINK-4037,PAYLOAD,2024-07-18 15:55:57,15.08848199,0.0001092,53.2174,323.2546,82.5546,277.5571,0.0002371,3.488e-05,0.0,0 STARLINK-4037,1 52663U 22053H   24200.66385807  .00003488  00000-0  23710-3 0  9994,2 52663  53.2174 323.2546 0001092  82.5546 277.5571 15.08848199120610,6917.855,95.437,540.476,538.965,0.0
52663.0,STARLINK-4037,PAYLOAD,2024-07-19 12:35:58,15.08840743,0.0001077,53.2177,319.3889,81.4593,278.6522,0.00021992,3.214e-05,0.0,0 STARLINK-4037,1 52663U 22053H   24201.52498391  .00003214  00000-0  21992-3 0  9990,2 52663  53.2177 319.3889 0001077  81.4593 278.6522 15.08840743120741,6917.878,95.438,540.488,538.998,0.0
52663.0,STARLINK-4037,PAYLOAD,2024-07-19 14:11:21,15.08843366,0.0001056,53.2175,319.0898,75.691,284.4199,0.00014882,2.082e-05,0.0,0 STARLINK-4037,1 52663U 22053H   24201.59122069  .00002082  00000-0  14882-3 0  9995,2 52663  53.2175 319.0898 0001056  75.6910 284.4199 15.08843366120751,6917.87,95.437,540.466,539.005,0.0
52663.0,STARLINK-4037,PAYLOAD,2024-07-20 01:19:02,15.08851135,0.0001227,53.2174,317.0119,67.8937,292.2185,0.00019433,2.807e-05,0.0,0 STARLINK-4037,1 52663U 22053H   24202.05489556  .00002807  00000-0  19433-3 0  9996,2 52663  53.2174 317.0119 0001227  67.8937 292.2185 15.08851135120829,6917.846,95.437,540.56,538.863,0.0
52663.0,STARLINK-4037,PAYLOAD,2024-07-20 14:02:08,15.08853138,7.73e-05,53.2178,314.6318,71.7726,288.335,0.00025408,3.76e-05,0.0,0 STARLINK-4037,1 52663U 22053H   24202.58481595  .00003760  00000-0  25408-3 0  9997,2 52663  53.2178 314.6318 0000773  71.7726 288.3350 15.08853138120906,6917.84,95.437,540.24,539.17,0.0
52663.0,STARLINK-4037,PAYLOAD,2024-07-20 20:23:40,15.08853378,8.23e-05,53.2176,313.4421,99.1118,260.9967,0.00077428,0.00012061,0.0,0 STARLINK-4037,1 52663U 22053H   24202.84977556  .00012061  00000-0  77428-3 0  9996,2 52663  53.2176 313.4421 0000823  99.1118 260.9967 15.08853378120941,6917.839,95.437,540.274,539.135,0.0
52663.0,STARLINK-4037,PAYLOAD,2024-07-21 12:17:33,15.08828865,0.0001439,53.2186,310.4664,96.3434,263.7722,-0.00013026,-2.36e-05,0.0,0 STARLINK-4037,1 52663U 22053H   24203.51218871 -.00002360  00000-0 -13026-3 0  9996,2 52663  53.2186 310.4664 0001439  96.3434 263.7722 15.08828865121047,6917.914,95.438,540.775,538.784,0.0
52663.0,STARLINK-4037,PAYLOAD,2024-07-21 13:52:56,15.08828643,0.0001448,53.2185,310.1686,96.4531,263.6626,-0.00012398,-2.26e-05,0.0,0 STARLINK-4037,1 52663U 22053H   24203.57842917 -.00002260  00000-0 -12398-3 0  9996,2 52663  53.2185 310.1686 0001448  96.4531 263.6626 15.08828643121053,6917.915,95.438,540.782,538.778,0.0
52663.0,STARLINK-4037,PAYLOAD,2024-07-22 10:32:56,15.08844288,0.0001351,53.2181,306.3102,87.9172,272.1975,0.00023669,3.481e-05,0.0,0 STARLINK-4037,1 52663U 22053H   24204.43954597  .00003481  00000-0  23669-3 0  9997,2 52663  53.2181 306.3102 0001351  87.9172 272.1975 15.08844288121187,6917.867,95.437,540.667,538.798,0.0
52663.0,STARLINK-4037,PAYLOAD,2024-07-23 13:34:28,15.08852813,0.0001691,53.2177,301.253,96.9401,263.1783,-0.00075205,-0.00012241,0.0,0 STARLINK-4037,1 52663U 22053H   24205.56560762 -.00012241  00000-0 -75205-3 0  9998,2 52663  53.2177 301.2530 0001691  96.9401 263.1783 15.08852813121352,6917.841,95.437,540.876,538.536,0.0
52663.0,STARLINK-4037,PAYLOAD,2024-07-24 10:14:30,15.08826429,0.0002322,53.218,297.3935,118.9843,241.1382,0.00010812,1.432e-05,0.0,0 STARLINK-4037,1 52663U 22053H   24206.42673832  .00001432  00000-0  10812-3 0  9998,2 52663  53.2180 297.3935 0002322 118.9843 241.1382 15.08826429121486,6917.922,95.438,541.393,538.181,0.0
52663.0,STARLINK-4037,PAYLOAD,2024-07-25 14:51:27,15.0884471,0.0001372,53.2153,292.0323,79.9212,280.1935,0.00080046,0.00012476,0.0,0 STARLINK-4037,1 52663U 22053H   24207.61906836  .00012476  00000-0  80046-3 0  9999,2 52663  53.2153 292.0323 0001372  79.9212 280.1935 15.08844710121669,6917.866,95.437,540.68,538.782,0.0
52663.0,STARLINK-4037,PAYLOAD,2024-07-26 05:09:55,15.08843507,0.00017,53.2142,289.3543,89.5647,270.554,0.00049888,7.661e-05,0.0,0 STARLINK-4037,1 52663U 22053H   24208.21522957  .00007661  00000-0  49888-3 0  9993,2 52663  53.2142 289.3543 0001700  89.5647 270.5540 15.08843507121752,6917.87,95.437,540.911,538.559,0.0
52663.0,STARLINK-4037,PAYLOAD,2024-07-26 13:06:51,15.08855172,0.0001624,53.2141,287.8696,86.664,273.4538,0.00063122,9.776e-05,0.0,0 STARLINK-4037,1 52663U 22053H   24208.54642533  .00009776  00000-0  63122-3 0  9998,2 52663  53.2141 287.8696 0001624  86.6640 273.4538 15.08855172121805,6917.834,95.437,540.822,538.576,0.0
52663.0,STARLINK-4037,PAYLOAD,2024-07-27 09:46:51,15.08849001,0.000203,53.2136,283.9978,112.1154,248.0053,0.00023544,3.462e-05,0.0,0 STARLINK-4037,1 52663U 22053H   24209.40754268  .00003462  00000-0  23544-3 0  9993,2 52663  53.2136 283.9978 0002030 112.1154 248.0053 15.08849001121934,6917.853,95.437,541.122,538.314,0.0
52663.0,STARLINK-4037,PAYLOAD,2024-07-27 12:57:38,15.08843199,0.0001652,53.2128,283.4084,97.3362,262.7817,0.00010987,1.461e-05,0.0,0 STARLINK-4037,1 52663U 22053H   24209.54002444  .00001461  00000-0  10987-3 0  9994,2 52663  53.2128 283.4084 0001652  97.3362 262.7817 15.08843199121957,6917.871,95.437,540.878,538.593,0.0
52663.0,STARLINK-4037,PAYLOAD,2024-07-28 11:13:02,15.08836727,0.0001236,53.2162,279.2431,97.3872,262.7261,0.00011702,1.575e-05,0.0,0 STARLINK-4037,1 52663U 22053H   24210.46738886  .00001575  00000-0  11702-3 0  9995,2 52663  53.2162 279.2431 0001236  97.3872 262.7261 15.08836727122096,6917.89,95.438,540.61,538.9,0.0
52663.0,STARLINK-4037,PAYLOAD,2024-07-28 12:48:25,15.08846478,0.0001883,53.2168,278.9445,111.6558,248.4634,-4.081e-05,-9.38e-06,0.0,0 STARLINK-4037,1 52663U 22053H   24210.53362524 -.00000938  00000-0 -40810-4 0  9992,2 52663  53.2168 278.9445 0001883 111.6558 248.4634 15.08846478122103,6917.861,95.437,541.028,538.423,0.0
52663.0,STARLINK-4037,PAYLOAD,2024-07-29 09:28:26,15.08837334,0.0001707,53.2169,275.077,100.8496,259.2689,6.2161e-05,7.01e-06,0.0,0 STARLINK-4037,1 52663U 22053H   24211.39474940  .00000701  00000-0  62161-4 0  9992,2 52663  53.2169 275.0770 0001707 100.8496 259.2689 15.08837334122234,6917.889,95.438,540.934,538.573,0.0
52663.0,STARLINK-4037,PAYLOAD,2024-07-29 12:39:12,15.08838209,0.0001724,53.217,274.4826,100.8114,259.3072,6.6469e-05,7.7e-06,0.0,0 STARLINK-4037,1 52663U 22053H   24211.52722918  .00000770  00000-0  66469-4 0  9999,2 52663  53.2170 274.4826 0001724 100.8114 259.3072 15.08838209122258,6917.886,95.438,540.944,538.558,0.0
52663.0,STARLINK-4037,PAYLOAD,2024-07-30 10:54:36,15.08840624,0.0001396,53.216,270.3256,87.3177,272.7975,6.3081e-05,7.16e-06,0.0,0 STARLINK-4037,1 52663U 22053H   24212.45459135  .00000716  00000-0  63081-4 0  9997,2 52663  53.2160 270.3256 0001396  87.3177 272.7975 15.08840624122392,6917.878,95.438,540.709,538.778,0.0
52663.0,STARLINK-4037,PAYLOAD,2024-07-30 20:26:55,15.08843818,0.0001444,53.2165,268.5367,86.5825,273.5332,0.00012615,1.72e-05,0.0,0 STARLINK-4037,1 52663U 22053H   24212.85202751  .00001720  00000-0  12615-3 0  9993,2 52663  53.2165 268.5367 0001444  86.5825 273.5332 15.08843818122455,6917.869,95.437,540.733,538.735,0.0
52663.0,STARLINK-4037,PAYLOAD,2024-07-31 10:45:22,15.0885351,0.0001478,53.2165,265.8659,101.7529,258.3629,0.00015705,2.213e-05,0.0,0 STARLINK-4037,1 52663U 22053H   24213.44818136  .00002213  00000-0  15705-3 0  9990,2 52663  53.2165 265.8659 0001478 101.7529 258.3629 15.08853510122547,6917.839,95.437,540.727,538.682,0.0
52663.0,STARLINK-4037,PAYLOAD,2024-07-31 20:17:41,15.08847544,0.0001239,53.2152,264.0821,91.8187,268.2947,2.5581e-05,1.19e-06,0.0,0 STARLINK-4037,1 52663U 22053H   24213.84562460  .00000119  00000-0  25581-4 0  9997,2 52663  53.2152 264.0821 0001239  91.8187 268.2947 15.08847544122609,6917.857,95.437,540.579,538.865,0.0
52663.0,STARLINK-4037,PAYLOAD,2024-08-01 12:11:33,15.08843817,0.0001212,53.2159,261.1022,85.8081,274.305,2.9076e-05,1.75e-06,0.0,0 STARLINK-4037,1 52663U 22053H   24214.50803007  .00000175  00000-0  29076-4 0  9991,2 52663  53.2159 261.1022 0001212  85.8081 274.3050 15.08843817122707,6917.869,95.437,540.572,538.895,0.0
52663.0,STARLINK-4037,PAYLOAD,2024-08-02 12:02:21,15.08837849,0.0001355,53.216,256.6451,85.9121,274.2026,-9.6123e-05,-1.817e-05,0.0,0 STARLINK-4037,1 52663U 22053H   24215.50164157 -.00001817  00000-0 -96123-4 0  9991,2 52663  53.2160 256.6451 0001355  85.9121 274.2026 15.08837849122854,6917.887,95.438,540.689,538.815,0.0
52663.0,STARLINK-4037,PAYLOAD,2024-08-02 19:59:17,15.08837424,0.0001248,53.2149,255.1603,92.4,267.7135,4.345e-05,4.04e-06,0.0,0 STARLINK-4037,1 52663U 22053H   24215.83283860  .00000404  00000-0  43450-4 0  9994,2 52663  53.2149 255.1603 0001248  92.4000 267.7135 15.08837424122907,6917.888,95.438,540.617,538.89,0.0
52663.0,STARLINK-4037,PAYLOAD,2024-08-03 10:17:44,15.08848336,0.0001344,53.2157,252.4794,93.1862,266.9284,0.00018834,2.711e-05,0.0,0 STARLINK-4037,1 52663U 22053H   24216.42899175  .00002711  00000-0  18834-3 0  9992,2 52663  53.2157 252.4794 0001344  93.1862 266.9284 15.08848336122997,6917.855,95.437,540.65,538.79,0.0
52663.0,STARLINK-4037,PAYLOAD,2024-08-03 19:50:04,15.088394,0.0001325,53.2141,250.698,88.7012,271.4132,0.00016564,2.349e-05,0.0,0 STARLINK-4037,1 52663U 22053H   24216.82644109  .00002349  00000-0  16564-3 0  9996,2 52663  53.2141 250.6980 0001325  88.7012 271.4132 15.08839400123056,6917.882,95.438,540.664,538.831,0.0
